{"type": "FeatureCollection", "features": [ {"type": "Feature", "properties": {"norad_id": 30160, "name": "FENGYUN 1C DEB", "group": "fengyun-1c-debris", "lat": 58.74586323922027, "lon": 138.57922520881553, "alt_km": 845.3474482130787, "timestamp": "2025-12-22T04:03:39.443457+00:00", "meta": {"OBJECT_NAME": "FENGYUN 1C DEB", "OBJECT_ID": "1999-025TR", "EPOCH": "2025-12-21T08:32:24.224352", "MEAN_MOTION": 13.42902941, "ECCENTRICITY": 0.03432652, "INCLINATION": 98.8871, "RA_OF_ASC_NODE": 302.9215, "ARG_OF_PERICENTER": 106.0735, "MEAN_ANOMALY": 42.7498, "EPHEMERIS_TYPE": 0, "CLASSIFICATION_TYPE": "U", "NORAD_CAT_ID": 30160, "ELEMENT_SET_NO": 999, "REV_AT_EPOCH": 92529, "BSTAR": 0.00095501966, "MEAN_MOTION_DOT": 7.38e-06, "MEAN_MOTION_DDOT": 0}, "tle": {"line1": "1 30160U 99025TR  25355.35583593  .00000738  00000+0  95502-3 0  9997", "line2": "2 30160  98.8871 302.9215 0343265 106.0735  42.7498 13.42902941925296"}}, "geometry": {"type": "Point", "coordinates": [138.57922520881553, 58.74586323922027]}}, {"type": "Feature", "properties": {"norad_id": 30161, "name": "FENGYUN 1C DEB", "group": "fengyun-1c-debris", "lat": -79.47052922413147, "lon": 77.45120745723749, "alt_km": 876.1085603235879, "timestamp": "2025-12-22T04:03:39.443467+00:00", "meta": {"OBJECT_NAME": "FENGYUN 1C DEB", "OBJECT_ID": "1999-025TS", "EPOCH": "2025-12-20T12:13:45.202080", "MEAN_MOTION": 13.49740922, "ECCENTRICITY": 0.03278459, "INCLINATION": 100.5056, "RA_OF_ASC_NODE": 342.3359, "ARG_OF_PERICENTER": 239.1105, "MEAN_ANOMALY": 247.8199, "EPHEMERIS_TYPE": 0, "CLASSIFICATION_TYPE": "U", "NORAD_CAT_ID": 30161, "ELEMENT_SET_NO": 999, "REV_AT_EPOCH": 92664, "BSTAR": 0.0012052397, "MEAN_MOTION_DOT": 1.014e-05, "MEAN_MOTION_DDOT": 0}, "tle": {"line1": "1 30161U 99025TS  25354.50955095  .00001014  00000+0  12052-2 0  9990", "line2": "2 30161 100.5056 342.3359 0327845 239.1105 247.8199 13.49740922926647"}}, "geometry": {"type": "Point", "coordinates": [77.45120745723749, -79.47052922413147]}}, {"type": "Feature", "properties": {"norad_id": 30162, "name": "FENGYUN 1C DEB", "group": "fengyun-1c-debris", "lat": -9.135878561893685, "lon": -129.6797419578144, "alt_km": 1229.5617702693362, "timestamp": "2025-12-22T04:03:39.443477+00:00", "meta": {"OBJECT_NAME": "FENGYUN 1C DEB", "OBJECT_ID": "1999-025TT", "EPOCH": "2025-12-21T02:24:32.978016", "MEAN_MOTION": 13.53433369, "ECCENTRICITY": 0.03139782, "INCLINATION": 99.4884, "RA_OF_ASC_NODE": 50.8356, "ARG_OF_PERICENTER": 328.3911, "MEAN_ANOMALY": 58.2618, "EPHEMERIS_TYPE": 0, "CLASSIFICATION_TYPE": "U", "NORAD_CAT_ID": 30162, "ELEMENT_SET_NO": 999, "REV_AT_EPOCH": 92774, "BSTAR": 0.0021023786, "MEAN_MOTION_DOT": 1.886e-05, "MEAN_MOTION_DDOT": 0}, "tle": {"line1": "1 30162U 99025TT  25355.10038169  .00001886  00000+0  21024-2 0  9998", "line2": "2 30162  99.4884  50.8356 0313978 328.3911  58.2618 13.53433369927740"}}, "geometry": {"type": "Point", "coordinates": [-129.6797419578144, -9.135878561893685]}}, {"type": "Feature", "properties": {"norad_id": 30163, "name": "FENGYUN 1C DEB", "group": "fengyun-1c-debris", "lat": 63.499225210497805, "lon": 92.05064617397446, "alt_km": 1330.1714910710589, "timestamp": "2025-12-22T04:03:39.443488+00:00", "meta": {"OBJECT_NAME": "FENGYUN 1C DEB", "OBJECT_ID": "1999-025TU", "EPOCH": "2025-12-20T21:49:42.322368", "MEAN_MOTION": 13.38804354, "ECCENTRICITY": 0.0373952, "INCLINATION": 98.7013, "RA_OF_ASC_NODE": 108.8545, "ARG_OF_PERICENTER": 211.9984, "MEAN_ANOMALY": 267.3469, "EPHEMERIS_TYPE": 0, "CLASSIFICATION_TYPE": "U", "NORAD_CAT_ID": 30163, "ELEMENT_SET_NO": 999, "REV_AT_EPOCH": 92054, "BSTAR": 0.0014722, "MEAN_MOTION_DOT": 1.144e-05, "MEAN_MOTION_DDOT": 0}, "tle": {"line1": "1 30163U 99025TU  25354.90951762  .00001144  00000+0  14722-2 0  9993", "line2": "2 30163  98.7013 108.8545 0373952 211.9984 267.3469 13.38804354920543"}}, "geometry": {"type": "Point", "coordinates": [92.05064617397446, 63.499225210497805]}}, {"type": "Feature", "properties": {"norad_id": 30167, "name": "FENGYUN 1C DEB", "group": "fengyun-1c-debris", "lat": 42.07346916042016, "lon": -89.88209847992105, "alt_km": 626.0314111815396, "timestamp": "2025-12-22T04:03:39.443498+00:00", "meta": {"OBJECT_NAME": "FENGYUN 1C DEB", "OBJECT_ID": "1999-025TY", "EPOCH": "2025-12-21T19:41:22.045920", "MEAN_MOTION": 14.48572984, "ECCENTRICITY": 0.0144303, "INCLINATION": 98.9676, "RA_OF_ASC_NODE": 81.5523, "ARG_OF_PERICENTER": 127.4153, "MEAN_ANOMALY": 351.5126, "EPHEMERIS_TYPE": 0, "CLASSIFICATION_TYPE": "U", "NORAD_CAT_ID": 30167, "ELEMENT_SET_NO": 999, "REV_AT_EPOCH": 99490, "BSTAR": 0.00033234, "MEAN_MOTION_DOT": 1.369e-05, "MEAN_MOTION_DDOT": 0}, "tle": {"line1": "1 30167U 99025TY  25355.82039405  .00001369  00000+0  33234-3 0  9999", "line2": "2 30167  98.9676  81.5523 0144303 127.4153 351.5126 14.48572984994902"}}, "geometry": {"type": "Point", "coordinates": [-89.88209847992105, 42.07346916042016]}}, {"type": "Feature", "properties": {"norad_id": 30168, "name": "FENGYUN 1C DEB", "group": "fengyun-1c-debris", "lat": -6.712276076931568, "lon": 68.30191912504392, "alt_km": 766.3332148547652, "timestamp": "2025-12-22T04:03:39.443508+00:00", "meta": {"OBJECT_NAME": "FENGYUN 1C DEB", "OBJECT_ID": "1999-025TZ", "EPOCH": "2025-12-20T04:09:43.014528", "MEAN_MOTION": 14.52979202, "ECCENTRICITY": 0.01005049, "INCLINATION": 97.3898, "RA_OF_ASC_NODE": 65.6666, "ARG_OF_PERICENTER": 130.9091, "MEAN_ANOMALY": 230.0866, "EPHEMERIS_TYPE": 0, "CLASSIFICATION_TYPE": "U", "NORAD_CAT_ID": 30168, "ELEMENT_SET_NO": 999, "REV_AT_EPOCH": 98419, "BSTAR": 0.0011122974, "MEAN_MOTION_DOT": 4.866e-05, "MEAN_MOTION_DDOT": 0}, "tle": {"line1": "1 30168U 99025TZ  25354.17341452  .00004866  00000+0  11123-2 0  9992", "line2": "2 30168  97.3898  65.6666 0100504 130.9091 230.0866 14.52979202984199"}}, "geometry": {"type": "Point", "coordinates": [68.30191912504392, -6.712276076931568]}}, {"type": "Feature", "properties": {"norad_id": 30169, "name": "FENGYUN 1C DEB", "group": "fengyun-1c-debris", "lat": -5.765372923993194, "lon": 66.51542310550113, "alt_km": 839.8401609400771, "timestamp": "2025-12-22T04:03:39.443519+00:00", "meta": {"OBJECT_NAME": "FENGYUN 1C DEB", "OBJECT_ID": "1999-025UA", "EPOCH": "2025-12-21T03:32:08.285568", "MEAN_MOTION": 14.58322216, "ECCENTRICITY": 0.02130264, "INCLINATION": 98.3358, "RA_OF_ASC_NODE": 64.6419, "ARG_OF_PERICENTER": 201.059, "MEAN_ANOMALY": 190.4957, "EPHEMERIS_TYPE": 0, "CLASSIFICATION_TYPE": "U", "NORAD_CAT_ID": 30169, "ELEMENT_SET_NO": 999, "REV_AT_EPOCH": 97846, "BSTAR": 0.0017310002, "MEAN_MOTION_DOT": 0.00010929, "MEAN_MOTION_DDOT": 0}, "tle": {"line1": "1 30169U 99025UA  25355.14731812  .00010929  00000+0  17310-2 0  9995", "line2": "2 30169  98.3358  64.6419 0213026 201.0590 190.4957 14.58322216978461"}}, "geometry": {"type": "Point", "coordinates": [66.51542310550113, -5.765372923993194]}}, {"type": "Feature", "properties": {"norad_id": 30170, "name": "FENGYUN 1C DEB", "group": "fengyun-1c-debris", "lat": -17.776814115306966, "lon": 160.03604289138806, "alt_km": 861.3895618387251, "timestamp": "2025-12-22T04:03:39.443530+00:00", "meta": {"OBJECT_NAME": "FENGYUN 1C DEB", "OBJECT_ID": "1999-025UB", "EPOCH": "2025-12-21T17:41:40.471008", "MEAN_MOTION": 14.00317859, "ECCENTRICITY": 0.0077255, "INCLINATION": 98.8492, "RA_OF_ASC_NODE": 342.481, "ARG_OF_PERICENTER": 249.3196, "MEAN_ANOMALY": 293.0072, "EPHEMERIS_TYPE": 0, "CLASSIFICATION_TYPE": "U", "NORAD_CAT_ID": 30170, "ELEMENT_SET_NO": 999, "REV_AT_EPOCH": 96541, "BSTAR": 0.00027069, "MEAN_MOTION_DOT": 3.68e-06, "MEAN_MOTION_DDOT": 0}, "tle": {"line1": "1 30170U 99025UB  25355.73727397  .00000368  00000+0  27069-3 0  9994", "line2": "2 30170  98.8492 342.4810 0077255 249.3196 293.0072 14.00317859965411"}}, "geometry": {"type": "Point", "coordinates": [160.03604289138806, -17.776814115306966]}}, {"type": "Feature", "properties": {"norad_id": 30171, "name": "FENGYUN 1C DEB", "group": "fengyun-1c-debris", "lat": -54.052585421934836, "lon": -135.17986140866046, "alt_km": 851.3752328630935, "timestamp": "2025-12-22T04:03:39.443540+00:00", "meta": {"OBJECT_NAME": "FENGYUN 1C DEB", "OBJECT_ID": "1999-025UC", "EPOCH": "2025-12-21T12:51:05.924736", "MEAN_MOTION": 13.9686608, "ECCENTRICITY": 0.0184254, "INCLINATION": 98.3978, "RA_OF_ASC_NODE": 212.4868, "ARG_OF_PERICENTER": 242.6597, "MEAN_ANOMALY": 115.5708, "EPHEMERIS_TYPE": 0, "CLASSIFICATION_TYPE": "U", "NORAD_CAT_ID": 30171, "ELEMENT_SET_NO": 999, "REV_AT_EPOCH": 96393, "BSTAR": 0.00035578, "MEAN_MOTION_DOT": 5.31e-06, "MEAN_MOTION_DDOT": 0}, "tle": {"line1": "1 30171U 99025UC  25355.53548524  .00000531  00000+0  35578-3 0  9992", "line2": "2 30171  98.3978 212.4868 0184254 242.6597 115.5708 13.96866080963932"}}, "geometry": {"type": "Point", "coordinates": [-135.17986140866046, -54.052585421934836]}}, {"type": "Feature", "properties": {"norad_id": 30172, "name": "FENGYUN 1C DEB", "group": "fengyun-1c-debris", "lat": 56.06102592603889, "lon": 169.51700531372146, "alt_km": 815.0310835020946, "timestamp": "2025-12-22T04:03:39.443551+00:00", "meta": {"OBJECT_NAME": "FENGYUN 1C DEB", "OBJECT_ID": "1999-025UD", "EPOCH": "2025-12-20T12:57:33.083136", "MEAN_MOTION": 14.1249883, "ECCENTRICITY": 0.0068811, "INCLINATION": 99.2352, "RA_OF_ASC_NODE": 333.8478, "ARG_OF_PERICENTER": 179.9965, "MEAN_ANOMALY": 303.2373, "EPHEMERIS_TYPE": 0, "CLASSIFICATION_TYPE": "U", "NORAD_CAT_ID": 30172, "ELEMENT_SET_NO": 999, "REV_AT_EPOCH": 96627, "BSTAR": 0.00098829, "MEAN_MOTION_DOT": 1.82e-05, "MEAN_MOTION_DDOT": 0}, "tle": {"line1": "1 30172U 99025UD  25354.53996624  .00001820  00000+0  98829-3 0  9990", "line2": "2 30172  99.2352 333.8478 0068811 179.9965 303.2373 14.12498830966272"}}, "geometry": {"type": "Point", "coordinates": [169.51700531372146, 56.06102592603889]}}]}